NORAD_CAT_ID,OBJECT_NAME,OBJECT_TYPE,EPOCH,MEAN_MOTION,ECCENTRICITY,INCLINATION,RA_OF_ASC_NODE,ARG_OF_PERICENTER,MEAN_ANOMALY,BSTAR,MEAN_MOTION_DOT,MEAN_MOTION_DDOT,TLE_LINE0,TLE_LINE1,TLE_LINE2,SEMIMAJOR_AXIS,PERIOD,APOGEE,PERIGEE,DECAYED
52262.0,STARLINK-3761,PAYLOAD,2023-10-22 13:49:21,15.08828338,0.0001338,53.2161,50.6717,85.8131,274.3014,7.7213e-07,-2.76e-06,0.0,0 STARLINK-3761,1 52262U 22041B   23295.57594575 -.00000276  00000-0  77213-6 0  9996,2 52262  53.2161  50.6717 0001338  85.8131 274.3014 15.08828338 83158,6917.916,95.438,540.707,538.855,0.0
52262.0,STARLINK-3761,PAYLOAD,2023-10-22 15:24:44,15.088317,0.0001385,53.2161,50.3742,80.5615,279.5534,-1.7952e-05,-5.74e-06,0.0,0 STARLINK-3761,1 52262U 22041B   23295.64218349 -.00000574  00000-0 -17952-4 0  9990,2 52262  53.2161  50.3742 0001385  80.5615 279.5534 15.08831700 83166,6917.906,95.438,540.729,538.813,0.0
52262.0,STARLINK-3761,PAYLOAD,2023-10-23 00:57:03,15.08840547,0.0001353,53.2161,48.59,79.6504,280.4641,0.00037741,5.724e-05,0.0,0 STARLINK-3761,1 52262U 22041B   23296.03962456  .00005724  00000-0  37741-3 0  9996,2 52262  53.2161  48.5900 0001353  79.6504 280.4641 15.08840547 84443,6917.879,95.438,540.68,538.808,0.0
52262.0,STARLINK-3761,PAYLOAD,2023-10-23 13:40:08,15.08843588,0.000133,53.2158,46.211,78.2256,281.8885,0.0006853,0.00010636,0.0,0 STARLINK-3761,1 52262U 22041B   23296.56954687  .00010636  00000-0  68530-3 0  9999,2 52262  53.2158  46.2110 0001330  78.2256 281.8885 15.08843588 83308,6917.869,95.437,540.654,538.814,0.0
52262.0,STARLINK-3761,PAYLOAD,2023-10-24 13:30:55,15.08848817,0.0001662,53.2171,41.7482,94.1098,266.0084,0.00051468,7.915e-05,0.0,0 STARLINK-3761,1 52262U 22041B   23297.56314527  .00007915  00000-0  51468-3 0  9991,2 52262  53.2171  41.7482 0001662  94.1098 266.0084 15.08848817 84671,6917.853,95.437,540.868,538.569,0.0
52262.0,STARLINK-3761,PAYLOAD,2023-10-25 11:46:19,15.08847827,0.0001643,53.2163,37.5861,88.834,271.284,0.00010642,1.406e-05,0.0,0 STARLINK-3761,1 52262U 22041B   23298.49050281  .00001406  00000-0  10642-3 0  9996,2 52262  53.2163  37.5861 0001643  88.8340 271.2840 15.08847827 84819,6917.856,95.437,540.858,538.585,0.0
52262.0,STARLINK-3761,PAYLOAD,2023-10-26 11:37:06,15.08842017,0.0001363,53.2175,33.1276,87.8151,272.2997,0.0001049,1.382e-05,0.0,0 STARLINK-3761,1 52262U 22041B   23299.48410442  .00001382  00000-0  10490-3 0  9999,2 52262  53.2175  33.1276 0001363  87.8151 272.2997 15.08842017 84968,6917.874,95.437,540.682,538.796,0.0
52262.0,STARLINK-3761,PAYLOAD,2023-10-26 13:12:29,15.08846929,0.000143,53.2177,32.8308,84.9548,275.1608,4.8655e-05,4.87e-06,0.0,0 STARLINK-3761,1 52262U 22041B   23299.55034210  .00000487  00000-0  48655-4 0  9992,2 52262  53.2177  32.8308 0001430  84.9548 275.1608 15.08846929 83758,6917.859,95.437,540.713,538.735,0.0
52262.0,STARLINK-3761,PAYLOAD,2023-10-27 13:03:16,15.08854083,0.0001597,53.2185,28.3733,97.11,263.0073,0.00023426,3.444e-05,0.0,0 STARLINK-3761,1 52262U 22041B   23300.54393672  .00003444  00000-0  23426-3 0  9998,2 52262  53.2185  28.3733 0001597  97.1100 263.0073 15.08854083 85128,6917.837,95.437,540.807,538.598,0.0
52262.0,STARLINK-3761,PAYLOAD,2023-10-28 11:18:41,15.08825163,0.0001526,53.2185,24.2071,88.4584,271.6583,-0.00017413,-3.057e-05,0.0,0 STARLINK-3761,1 52262U 22041B   23301.47131118 -.00003057  00000-0 -17413-3 0  9997,2 52262  53.2185  24.2071 0001526  88.4584 271.6583 15.08825163 85262,6917.926,95.438,540.846,538.735,0.0
52262.0,STARLINK-3761,PAYLOAD,2023-10-28 12:54:04,15.08829635,0.0001559,53.219,23.9116,92.5347,267.5824,-0.00011968,-2.192e-05,0.0,0 STARLINK-3761,1 52262U 22041B   23301.53754947 -.00002192  00000-0 -11968-3 0  9993,2 52262  53.2190  23.9116 0001559  92.5347 267.5824 15.08829635 84059,6917.912,95.438,540.856,538.699,0.0
52262.0,STARLINK-3761,PAYLOAD,2023-10-28 16:04:50,15.0883627,0.000148,53.2186,23.3144,86.3983,273.7179,9.8813e-06,-1.31e-06,0.0,0 STARLINK-3761,1 52262U 22041B   23301.67002714 -.00000131  00000-0  98813-5 0  9992,2 52262  53.2186  23.3144 0001480  86.3983 273.7179 15.08836270 85291,6917.892,95.438,540.781,538.733,0.0
52262.0,STARLINK-3761,PAYLOAD,2023-10-28 22:26:22,15.08840158,0.0001534,53.2191,22.1259,88.4664,271.6504,8.5711e-05,1.076e-05,0.0,0 STARLINK-3761,1 52262U 22041B   23301.93498589  .00001076  00000-0  85711-4 0  9990,2 52262  53.2191  22.1259 0001534  88.4664 271.6504 15.08840158 84119,6917.88,95.438,540.806,538.684,0.0
52262.0,STARLINK-3761,PAYLOAD,2023-10-29 12:44:50,15.08870086,0.0001464,53.2179,19.4492,77.7743,282.3413,0.0013424,0.00021158,0.0,0 STARLINK-3761,1 52262U 22041B   23302.53114018  .00021158  00000-0  13424-2 0  9992,2 52262  53.2179  19.4492 0001464  77.7743 282.3413 15.08870086 85420,6917.788,95.436,540.666,538.641,0.0
52262.0,STARLINK-3761,PAYLOAD,2023-10-29 14:20:13,15.08881339,0.0001496,53.2179,19.1521,80.1941,279.922,0.0017011,0.00026919,0.0,0 STARLINK-3761,1 52262U 22041B   23302.59737765  .00026919  00000-0  17011-2 0  9994,2 52262  53.2179  19.1521 0001496  80.1941 279.9220 15.08881339 84210,6917.754,95.435,540.654,538.584,0.0
52262.0,STARLINK-3761,PAYLOAD,2023-10-29 22:17:09,15.08854333,0.0001262,53.2177,17.6655,94.1746,265.939,0.00044047,6.732e-05,0.0,0 STARLINK-3761,1 52262U 22041B   23302.92857850  .00006732  00000-0  44047-3 0  9990,2 52262  53.2177  17.6655 0001262  94.1746 265.9390 15.08854333 84260,6917.837,95.437,540.575,538.829,0.0
52262.0,STARLINK-3761,PAYLOAD,2023-10-29 23:52:32,15.08851108,0.0001689,53.2169,17.3697,96.8514,263.2671,0.00043918,6.711e-05,0.0,0 STARLINK-3761,1 52262U 22041B   23302.99481999  .00006711  00000-0  43918-3 0  9997,2 52262  53.2169  17.3697 0001689  96.8514 263.2671 15.08851108 85495,6917.846,95.437,540.88,538.543,0.0
52262.0,STARLINK-3761,PAYLOAD,2023-10-30 11:00:15,15.08830415,0.0001415,53.2172,15.2871,95.5222,264.5931,0.0012141,0.00019082,0.0,0 STARLINK-3761,1 52262U 22041B   23303.45850695  .00019082  00000-0  12141-2 0  9990,2 52262  53.2172  15.2871 0001415  95.5222 264.5931 15.08830415 85568,6917.91,95.438,540.754,538.796,0.0
52262.0,STARLINK-3761,PAYLOAD,2023-10-30 22:07:57,15.08827056,0.0001443,53.2165,13.2044,90.0856,270.0302,0.00097667,0.00015284,0.0,0 STARLINK-3761,1 52262U 22041B   23303.92219396  .00015284  00000-0  97667-3 0  9996,2 52262  53.2165  13.2044 0001443  90.0856 270.0302 15.08827056 84418,6917.92,95.438,540.783,538.787,0.0
52262.0,STARLINK-3761,PAYLOAD,2023-10-31 10:51:03,15.08830041,0.0001514,53.2163,10.8255,90.8781,269.2385,0.0005259,8.089e-05,0.0,0 STARLINK-3761,1 52262U 22041B   23304.45211877  .00008089  00000-0  52590-3 0  9992,2 52262  53.2163  10.8255 0001514  90.8781 269.2385 15.08830041 85710,6917.911,95.438,540.823,538.728,0.0
52262.0,STARLINK-3761,PAYLOAD,2023-10-31 21:58:45,15.08842096,0.0001534,53.2166,8.7441,89.7415,270.3753,0.00064298,9.96e-05,0.0,0 STARLINK-3761,1 52262U 22041B   23304.91579893  .00009960  00000-0  64298-3 0  9995,2 52262  53.2166   8.7441 0001534  89.7415 270.3753 15.08842096 84566,6917.874,95.437,540.8,538.678,0.0
52262.0,STARLINK-3761,PAYLOAD,2023-11-01 13:52:35,15.08861767,0.0001523,53.2165,5.7705,87.9996,272.117,0.00099467,0.00015587,0.0,0 STARLINK-3761,1 52262U 22041B   23305.57819312  .00015587  00000-0  99467-3 0  9999,2 52262  53.2165   5.7705 0001523  87.9996 272.1170 15.08861767 84667,6917.814,95.436,540.732,538.625,0.0
52262.0,STARLINK-3761,PAYLOAD,2023-11-02 10:32:36,15.08853002,0.0001482,53.2176,1.9055,93.3714,266.7448,0.0003343,5.038e-05,0.0,0 STARLINK-3761,1 52262U 22041B   23306.43931113  .00005038  00000-0  33430-3 0  9997,2 52262  53.2176   1.9055 0001482  93.3714 266.7448 15.08853002 86019,6917.841,95.437,540.731,538.68,0.0
52262.0,STARLINK-3761,PAYLOAD,2023-11-02 13:43:22,15.08857417,0.0001487,53.2172,1.3098,93.9275,266.1887,0.00040381,6.148e-05,0.0,0 STARLINK-3761,1 52262U 22041B   23306.57178932  .00006148  00000-0  40381-3 0  9990,2 52262  53.2172   1.3098 0001487  93.9275 266.1887 15.08857417 84810,6917.827,95.436,540.721,538.663,0.0
52262.0,STARLINK-3761,PAYLOAD,2023-11-03 04:01:51,15.08838763,0.0001331,53.2177,358.6348,76.1611,283.9529,-0.00010665,-1.985e-05,0.0,0 STARLINK-3761,1 52262U 22041B   23307.16795417 -.00001985  00000-0 -10665-3 0  9997,2 52262  53.2177 358.6348 0001331  76.1611 283.9529 15.08838763 86125,6917.884,95.438,540.67,538.828,0.0
52262.0,STARLINK-3761,PAYLOAD,2023-11-03 10:23:23,15.08843872,0.0001526,53.2181,357.4464,85.8654,274.2512,0.00041239,6.282e-05,0.0,0 STARLINK-3761,1 52262U 22041B   23307.43291391  .00006282  00000-0  41239-3 0  9993,2 52262  53.2181 357.4464 0001526  85.8654 274.2512 15.08843872 84946,6917.869,95.437,540.789,538.678,0.0
52262.0,STARLINK-3761,PAYLOAD,2023-11-03 19:55:42,15.08841002,0.0001533,53.2182,355.6625,84.4611,275.6556,0.00037674,5.713e-05,0.0,0 STARLINK-3761,1 52262U 22041B   23307.83035543  .00005713  00000-0  37674-3 0  9998,2 52262  53.2182 355.6625 0001533  84.4611 275.6556 15.08841002 85006,6917.877,95.437,540.803,538.682,0.0
52262.0,STARLINK-3761,PAYLOAD,2023-11-04 10:14:10,15.0884596,0.0001536,53.2181,352.9866,90.023,270.0938,0.00023373,3.434e-05,0.0,0 STARLINK-3761,1 52262U 22041B   23308.42651358  .00003434  00000-0  23373-3 0  9991,2 52262  53.2181 352.9866 0001536  90.0230 270.0938 15.08845960 86310,6917.862,95.437,540.79,538.665,0.0
52262.0,STARLINK-3761,PAYLOAD,2023-11-04 19:46:29,15.08846465,0.0001534,53.2175,351.2005,91.9282,268.1886,0.00019691,2.848e-05,0.0,0 STARLINK-3761,1 52262U 22041B   23308.82395151  .00002848  00000-0  19691-3 0  9997,2 52262  53.2175 351.2005 0001534  91.9282 268.1886 15.08846465 85157,6917.861,95.437,540.787,538.664,0.0
52262.0,STARLINK-3761,PAYLOAD,2023-11-05 10:04:57,15.08843221,0.0001614,53.2191,348.5283,89.2844,270.8333,0.00017227,2.455e-05,0.0,0 STARLINK-3761,1 52262U 22041B   23309.42011519  .00002455  00000-0  17227-3 0  9994,2 52262  53.2191 348.5283 0001614  89.2844 270.8333 15.08843221 86464,6917.871,95.437,540.852,538.619,0.0
